{"type": "FeatureCollection", "features": [ {"type": "Feature", "properties": {"norad_id": 33492, "name": "GOSAT (IBUKI)", "group": "resource", "lat": -53.93559633582044, "lon": 113.69326124215486, "alt_km": 676.5674527463107, "timestamp": "2025-12-19T22:41:52.035801+00:00", "meta": {"OBJECT_NAME": "GOSAT (IBUKI)", "OBJECT_ID": "2009-002A", "EPOCH": "2025-12-19T04:56:48.128640", "MEAN_MOTION": 14.67537344, "ECCENTRICITY": 9.91e-05, "INCLINATION": 98.0771, "RA_OF_ASC_NODE": 101.7196, "ARG_OF_PERICENTER": 100.0781, "MEAN_ANOMALY": 260.0536, "EPHEMERIS_TYPE": 0, "CLASSIFICATION_TYPE": "U", "NORAD_CAT_ID": 33492, "ELEMENT_SET_NO": 999, "REV_AT_EPOCH": 90506, "BSTAR": 0.00011356, "MEAN_MOTION_DOT": 5.96e-06, "MEAN_MOTION_DDOT": 0}, "tle": {"line1": "1 33492U 09002A   25353.20611260  .00000596  00000+0  11356-3 0  9996", "line2": "2 33492  98.0771 101.7196 0000991 100.0781 260.0536 14.67537344905062"}}, "geometry": {"type": "Point", "coordinates": [113.69326124215486, -53.93559633582044]}}, {"type": "Feature", "properties": {"norad_id": 35681, "name": "DEIMOS-1", "group": "resource", "lat": -34.77867106237406, "lon": -31.188374703530382, "alt_km": 653.0820474894626, "timestamp": "2025-12-19T22:41:52.035812+00:00", "meta": {"OBJECT_NAME": "DEIMOS-1", "OBJECT_ID": "2009-041A", "EPOCH": "2025-12-19T18:28:10.900704", "MEAN_MOTION": 14.74964491, "ECCENTRICITY": 0.0002619, "INCLINATION": 97.7142, "RA_OF_ASC_NODE": 154.0452, "ARG_OF_PERICENTER": 68.2705, "MEAN_ANOMALY": 291.8784, "EPHEMERIS_TYPE": 0, "CLASSIFICATION_TYPE": "U", "NORAD_CAT_ID": 35681, "ELEMENT_SET_NO": 999, "REV_AT_EPOCH": 88043, "BSTAR": 0.00014, "MEAN_MOTION_DOT": 8.94e-06, "MEAN_MOTION_DDOT": 0}, "tle": {"line1": "1 35681U 09041A   25353.76957061  .00000894  00000+0  14000-3 0  9994", "line2": "2 35681  97.7142 154.0452 0002619  68.2705 291.8784 14.74964491880433"}}, "geometry": {"type": "Point", "coordinates": [-31.188374703530382, -34.77867106237406]}}, {"type": "Feature", "properties": {"norad_id": 35682, "name": "DUBAISAT-1", "group": "resource", "lat": 38.39045670409973, "lon": -49.09934880875877, "alt_km": 649.0333930032994, "timestamp": "2025-12-19T22:41:52.035823+00:00", "meta": {"OBJECT_NAME": "DUBAISAT-1", "OBJECT_ID": "2009-041B", "EPOCH": "2025-12-19T09:01:52.608576", "MEAN_MOTION": 14.74621138, "ECCENTRICITY": 0.0009289, "INCLINATION": 97.9797, "RA_OF_ASC_NODE": 123.9586, "ARG_OF_PERICENTER": 290.7501, "MEAN_ANOMALY": 69.2712, "EPHEMERIS_TYPE": 0, "CLASSIFICATION_TYPE": "U", "NORAD_CAT_ID": 35682, "ELEMENT_SET_NO": 999, "REV_AT_EPOCH": 87859, "BSTAR": 0.00014564, "MEAN_MOTION_DOT": 9.21e-06, "MEAN_MOTION_DDOT": 0}, "tle": {"line1": "1 35682U 09041B   25353.37630334  .00000921  00000+0  14564-3 0  9999", "line2": "2 35682  97.9797 123.9586 0009289 290.7501  69.2712 14.74621138878591"}}, "geometry": {"type": "Point", "coordinates": [-49.09934880875877, 38.39045670409973]}}, {"type": "Feature", "properties": {"norad_id": 35931, "name": "OCEANSAT-2", "group": "resource", "lat": 3.6749745703228056, "lon": 174.34730477080507, "alt_km": 907.6096911215272, "timestamp": "2025-12-19T22:41:52.035834+00:00", "meta": {"OBJECT_NAME": "OCEANSAT-2", "OBJECT_ID": "2009-051A", "EPOCH": "2025-12-19T18:25:41.335392", "MEAN_MOTION": 13.99623236, "ECCENTRICITY": 0.0016034, "INCLINATION": 98.2217, "RA_OF_ASC_NODE": 353.6554, "ARG_OF_PERICENTER": 26.6434, "MEAN_ANOMALY": 333.5554, "EPHEMERIS_TYPE": 0, "CLASSIFICATION_TYPE": "U", "NORAD_CAT_ID": 35931, "ELEMENT_SET_NO": 999, "REV_AT_EPOCH": 85423, "BSTAR": -6.3329e-05, "MEAN_MOTION_DOT": -1.3e-06, "MEAN_MOTION_DDOT": 0}, "tle": {"line1": "1 35931U 09051A   25353.76783953 -.00000130  00000+0 -63329-4 0  9994", "line2": "2 35931  98.2217 353.6554 0016034  26.6434 333.5554 13.99623236854236"}}, "geometry": {"type": "Point", "coordinates": [174.34730477080507, 3.6749745703228056]}}, {"type": "Feature", "properties": {"norad_id": 35946, "name": "WORLDVIEW-2 (WV-2)", "group": "resource", "lat": -24.44986866662738, "lon": -118.95724904156098, "alt_km": 774.6504011553125, "timestamp": "2025-12-19T22:41:52.035845+00:00", "meta": {"OBJECT_NAME": "WORLDVIEW-2 (WV-2)", "OBJECT_ID": "2009-055A", "EPOCH": "2025-12-19T16:44:18.573216", "MEAN_MOTION": 14.37726857, "ECCENTRICITY": 0.0004953, "INCLINATION": 98.4781, "RA_OF_ASC_NODE": 64.6865, "ARG_OF_PERICENTER": 53.6668, "MEAN_ANOMALY": 306.4976, "EPHEMERIS_TYPE": 0, "CLASSIFICATION_TYPE": "U", "NORAD_CAT_ID": 35946, "ELEMENT_SET_NO": 999, "REV_AT_EPOCH": 84985, "BSTAR": 5.4434e-05, "MEAN_MOTION_DOT": 1.2e-06, "MEAN_MOTION_DDOT": 0}, "tle": {"line1": "1 35946U 09055A   25353.69743719  .00000120  00000+0  54434-4 0  9996", "line2": "2 35946  98.4781  64.6865 0004953  53.6668 306.4976 14.37726857849855"}}, "geometry": {"type": "Point", "coordinates": [-118.95724904156098, -24.44986866662738]}}, {"type": "Feature", "properties": {"norad_id": 36036, "name": "SMOS", "group": "resource", "lat": -66.23819204155299, "lon": -161.40819349123416, "alt_km": 767.2140800634779, "timestamp": "2025-12-19T22:41:52.035856+00:00", "meta": {"OBJECT_NAME": "SMOS", "OBJECT_ID": "2009-059A", "EPOCH": "2025-12-19T11:20:10.902624", "MEAN_MOTION": 14.39746894, "ECCENTRICITY": 0.0001083, "INCLINATION": 98.438, "RA_OF_ASC_NODE": 178.4211, "ARG_OF_PERICENTER": 82.411, "MEAN_ANOMALY": 277.7201, "EPHEMERIS_TYPE": 0, "CLASSIFICATION_TYPE": "U", "NORAD_CAT_ID": 36036, "ELEMENT_SET_NO": 999, "REV_AT_EPOCH": 84759, "BSTAR": 0.00010424, "MEAN_MOTION_DOT": 2.83e-06, "MEAN_MOTION_DDOT": 0}, "tle": {"line1": "1 36036U 09059A   25353.47234841  .00000283  00000+0  10424-3 0  9998", "line2": "2 36036  98.4380 178.4211 0001083  82.4110 277.7201 14.39746894847598"}}, "geometry": {"type": "Point", "coordinates": [-161.40819349123416, -66.23819204155299]}}, {"type": "Feature", "properties": {"norad_id": 36110, "name": "YAOGAN-7", "group": "resource", "lat": 21.1930575397766, "lon": -127.46096046741164, "alt_km": 645.6569449588251, "timestamp": "2025-12-19T22:41:52.035866+00:00", "meta": {"OBJECT_NAME": "YAOGAN-7", "OBJECT_ID": "2009-069A", "EPOCH": "2025-12-19T04:43:30.237600", "MEAN_MOTION": 14.77741395, "ECCENTRICITY": 0.0023351, "INCLINATION": 98.0297, "RA_OF_ASC_NODE": 234.9307, "ARG_OF_PERICENTER": 259.2514, "MEAN_ANOMALY": 100.6067, "EPHEMERIS_TYPE": 0, "CLASSIFICATION_TYPE": "U", "NORAD_CAT_ID": 36110, "ELEMENT_SET_NO": 999, "REV_AT_EPOCH": 86304, "BSTAR": 7.003e-05, "MEAN_MOTION_DOT": 4.51e-06, "MEAN_MOTION_DDOT": 0}, "tle": {"line1": "1 36110U 09069A   25353.19687775  .00000451  00000+0  70030-4 0  9996", "line2": "2 36110  98.0297 234.9307 0023351 259.2514 100.6067 14.77741395863047"}}, "geometry": {"type": "Point", "coordinates": [-127.46096046741164, 21.1930575397766]}}, {"type": "Feature", "properties": {"norad_id": 36605, "name": "TANDEM-X", "group": "resource", "lat": -77.07585611275395, "lon": 144.4837442242636, "alt_km": 516.9921256783173, "timestamp": "2025-12-19T22:41:52.035876+00:00", "meta": {"OBJECT_NAME": "TANDEM-X", "OBJECT_ID": "2010-030A", "EPOCH": "2025-12-19T12:04:27.806304", "MEAN_MOTION": 15.19152689, "ECCENTRICITY": 0.0001806, "INCLINATION": 97.4444, "RA_OF_ASC_NODE": 358.7845, "ARG_OF_PERICENTER": 78.9569, "MEAN_ANOMALY": 281.1868, "EPHEMERIS_TYPE": 0, "CLASSIFICATION_TYPE": "U", "NORAD_CAT_ID": 36605, "ELEMENT_SET_NO": 999, "REV_AT_EPOCH": 85936, "BSTAR": 3.4902e-05, "MEAN_MOTION_DOT": 6.66e-06, "MEAN_MOTION_DDOT": 0}, "tle": {"line1": "1 36605U 10030A   25353.50309961  .00000666  00000+0  34902-4 0  9994", "line2": "2 36605  97.4444 358.7845 0001806  78.9569 281.1868 15.19152689859365"}}, "geometry": {"type": "Point", "coordinates": [144.4837442242636, -77.07585611275395]}}, {"type": "Feature", "properties": {"norad_id": 36795, "name": "CARTOSAT-2B", "group": "resource", "lat": -25.740494584013142, "lon": 46.52411324136935, "alt_km": 637.5833311964852, "timestamp": "2025-12-19T22:41:52.035886+00:00", "meta": {"OBJECT_NAME": "CARTOSAT-2B", "OBJECT_ID": "2010-035A", "EPOCH": "2025-12-19T17:56:34.753344", "MEAN_MOTION": 14.78732825, "ECCENTRICITY": 0.0012843, "INCLINATION": 97.7847, "RA_OF_ASC_NODE": 42.5506, "ARG_OF_PERICENTER": 55.7286, "MEAN_ANOMALY": 304.514, "EPHEMERIS_TYPE": 0, "CLASSIFICATION_TYPE": "U", "NORAD_CAT_ID": 36795, "ELEMENT_SET_NO": 999, "REV_AT_EPOCH": 83333, "BSTAR": 2.9932e-05, "MEAN_MOTION_DOT": 1.7e-06, "MEAN_MOTION_DDOT": 0}, "tle": {"line1": "1 36795U 10035A   25353.74762446  .00000170  00000+0  29932-4 0  9993", "line2": "2 36795  97.7847  42.5506 0012843  55.7286 304.5140 14.78732825833331"}}, "geometry": {"type": "Point", "coordinates": [46.52411324136935, -25.740494584013142]}}, {"type": "Feature", "properties": {"norad_id": 36834, "name": "YAOGAN-10", "group": "resource", "lat": -26.988950454692663, "lon": -170.34935897182325, "alt_km": 621.1396963369989, "timestamp": "2025-12-19T22:41:52.035897+00:00", "meta": {"OBJECT_NAME": "YAOGAN-10", "OBJECT_ID": "2010-038A", "EPOCH": "2025-12-19T19:18:34.339104", "MEAN_MOTION": 14.84633898, "ECCENTRICITY": 0.0001442, "INCLINATION": 97.9135, "RA_OF_ASC_NODE": 13.5727, "ARG_OF_PERICENTER": 78.969, "MEAN_ANOMALY": 94.0899, "EPHEMERIS_TYPE": 0, "CLASSIFICATION_TYPE": "U", "NORAD_CAT_ID": 36834, "ELEMENT_SET_NO": 999, "REV_AT_EPOCH": 83058, "BSTAR": 0.00018776, "MEAN_MOTION_DOT": 1.533e-05, "MEAN_MOTION_DDOT": 0}, "tle": {"line1": "1 36834U 10038A   25353.80456411  .00001533  00000+0  18776-3 0  9996", "line2": "2 36834  97.9135  13.5727 0001442  78.9690  94.0899 14.84633898830582"}}, "geometry": {"type": "Point", "coordinates": [-170.34935897182325, -26.988950454692663]}}]}